CCSDS_OMM_VERS = 2.0
CREATION_DATE  = 
ORIGINATOR     = 

OBJECT_NAME    = SL-14 R/B
OBJECT_ID      = 1986-046B
CENTER_NAME    = EARTH
REF_FRAME      = TEME
TIME_SYSTEM    = UTC
MEAN_ELEMENT_THEORY = SGP/SGP4

EPOCH          = 2026-01-26T07:20:20.927328
MEAN_MOTION    = 14.85545455
ECCENTRICITY   = .0023356
INCLINATION    = 82.4833
RA_OF_ASC_NODE = 120.2288
ARG_OF_PERICENTER = 11.9099
MEAN_ANOMALY   = 348.2664

EPHEMERIS_TYPE = 0
CLASSIFICATION_TYPE = U
NORAD_CAT_ID   = 16792
ELEMENT_SET_NO = 999
REV_AT_EPOCH   = 12011
BSTAR          = .88826E-4
MEAN_MOTION_DOT = .795E-5
MEAN_MOTION_DDOT = 0

CCSDS_OMM_VERS = 2.0
CREATION_DATE  = 
ORIGINATOR     = 

OBJECT_NAME    = SL-14 R/B
OBJECT_ID      = 1986-055B
CENTER_NAME    = EARTH
REF_FRAME      = TEME
TIME_SYSTEM    = UTC
MEAN_ELEMENT_THEORY = SGP/SGP4

EPOCH          = 2026-01-26T12:08:39.295104
MEAN_MOTION    = 14.85592116
ECCENTRICITY   = .0020337
INCLINATION    = 82.5221
RA_OF_ASC_NODE = 166.3078
ARG_OF_PERICENTER = 110.3370
MEAN_ANOMALY   = 317.3678

EPHEMERIS_TYPE = 0
CLASSIFICATION_TYPE = U
NORAD_CAT_ID   = 16882
ELEMENT_SET_NO = 999
REV_AT_EPOCH   = 11310
BSTAR          = .11175E-3
MEAN_MOTION_DOT = .994E-5
MEAN_MOTION_DDOT = 0

CCSDS_OMM_VERS = 2.0
CREATION_DATE  = 
ORIGINATOR     = 

OBJECT_NAME    = AJISAI (EGS)
OBJECT_ID      = 1986-061A
CENTER_NAME    = EARTH
REF_FRAME      = TEME
TIME_SYSTEM    = UTC
MEAN_ELEMENT_THEORY = SGP/SGP4

EPOCH          = 2026-01-26T11:10:41.893824
MEAN_MOTION    = 12.44515285
ECCENTRICITY   = .0011285
INCLINATION    = 50.0061
RA_OF_ASC_NODE = 223.1872
ARG_OF_PERICENTER = 178.4940
MEAN_ANOMALY   = 213.7353

EPHEMERIS_TYPE = 0
CLASSIFICATION_TYPE = U
NORAD_CAT_ID   = 16908
ELEMENT_SET_NO = 999
REV_AT_EPOCH   = 46274
BSTAR          = .16947E-3
MEAN_MOTION_DOT = -.73E-6
MEAN_MOTION_DDOT = 0

CCSDS_OMM_VERS = 2.0
CREATION_DATE  = 
ORIGINATOR     = 

OBJECT_NAME    = COSMOS 1812
OBJECT_ID      = 1987-003A
CENTER_NAME    = EARTH
REF_FRAME      = TEME
TIME_SYSTEM    = UTC
MEAN_ELEMENT_THEORY = SGP/SGP4

EPOCH          = 2026-01-26T00:47:04.953408
MEAN_MOTION    = 15.88282619
ECCENTRICITY   = .00009723
INCLINATION    = 82.4797
RA_OF_ASC_NODE = 243.6622
ARG_OF_PERICENTER = 25.9520
MEAN_ANOMALY   = 334.1800

EPHEMERIS_TYPE = 0
CLASSIFICATION_TYPE = U
NORAD_CAT_ID   = 17295
ELEMENT_SET_NO = 999
REV_AT_EPOCH   = 13765
BSTAR          = .82300747E-3
MEAN_MOTION_DOT = .230474E-2
MEAN_MOTION_DDOT = 0

CCSDS_OMM_VERS = 2.0
CREATION_DATE  = 
ORIGINATOR     = 

OBJECT_NAME    = SL-14 R/B
OBJECT_ID      = 1987-024B
CENTER_NAME    = EARTH
REF_FRAME      = TEME
TIME_SYSTEM    = UTC
MEAN_ELEMENT_THEORY = SGP/SGP4

EPOCH          = 2026-01-26T08:30:40.409568
MEAN_MOTION    = 14.86086576
ECCENTRICITY   = .0019269
INCLINATION    = 82.5303
RA_OF_ASC_NODE = 132.5464
ARG_OF_PERICENTER = 44.5251
MEAN_ANOMALY   = 315.7509

EPHEMERIS_TYPE = 0
CLASSIFICATION_TYPE = U
NORAD_CAT_ID   = 17567
ELEMENT_SET_NO = 999
REV_AT_EPOCH   = 8184
BSTAR          = .95319E-4
MEAN_MOTION_DOT = .861E-5
MEAN_MOTION_DDOT = 0

CCSDS_OMM_VERS = 2.0
CREATION_DATE  = 
ORIGINATOR     = 

OBJECT_NAME    = COSMOS 1833
OBJECT_ID      = 1987-027A
CENTER_NAME    = EARTH
REF_FRAME      = TEME
TIME_SYSTEM    = UTC
MEAN_ELEMENT_THEORY = SGP/SGP4

EPOCH          = 2026-01-26T10:58:34.562208
MEAN_MOTION    = 14.13051568
ECCENTRICITY   = .0024581
INCLINATION    = 70.9196
RA_OF_ASC_NODE = 54.7795
ARG_OF_PERICENTER = 270.5656
MEAN_ANOMALY   = 89.2648

EPHEMERIS_TYPE = 0
CLASSIFICATION_TYPE = U
NORAD_CAT_ID   = 17589
ELEMENT_SET_NO = 999
REV_AT_EPOCH   = 435
BSTAR          = .14084E-3
MEAN_MOTION_DOT = .215E-5
MEAN_MOTION_DDOT = 0

CCSDS_OMM_VERS = 2.0
CREATION_DATE  = 
ORIGINATOR     = 

OBJECT_NAME    = SL-16 R/B
OBJECT_ID      = 1987-027B
CENTER_NAME    = EARTH
REF_FRAME      = TEME
TIME_SYSTEM    = UTC
MEAN_ELEMENT_THEORY = SGP/SGP4

EPOCH          = 2026-01-26T08:11:49.333344
MEAN_MOTION    = 14.17160175
ECCENTRICITY   = .0005883
INCLINATION    = 71.0037
RA_OF_ASC_NODE = 5.7300
ARG_OF_PERICENTER = 210.0151
MEAN_ANOMALY   = 150.0636

EPHEMERIS_TYPE = 0
CLASSIFICATION_TYPE = U
NORAD_CAT_ID   = 17590
ELEMENT_SET_NO = 999
REV_AT_EPOCH   = 934
BSTAR          = .10352E-3
MEAN_MOTION_DOT = .161E-5
MEAN_MOTION_DDOT = 0

CCSDS_OMM_VERS = 2.0
CREATION_DATE  = 
ORIGINATOR     = 

OBJECT_NAME    = SL-14 R/B
OBJECT_ID      = 1987-038B
CENTER_NAME    = EARTH
REF_FRAME      = TEME
TIME_SYSTEM    = UTC
MEAN_ELEMENT_THEORY = SGP/SGP4

EPOCH          = 2026-01-26T07:52:00.030432
MEAN_MOTION    = 14.85320478
ECCENTRICITY   = .0018026
INCLINATION    = 82.5037
RA_OF_ASC_NODE = 336.7021
ARG_OF_PERICENTER = 307.9573
MEAN_ANOMALY   = 52.0013

EPHEMERIS_TYPE = 0
CLASSIFICATION_TYPE = U
NORAD_CAT_ID   = 17912
ELEMENT_SET_NO = 999
REV_AT_EPOCH   = 7294
BSTAR          = .10865E-3
MEAN_MOTION_DOT = .96E-5
MEAN_MOTION_DDOT = 0

CCSDS_OMM_VERS = 2.0
CREATION_DATE  = 
ORIGINATOR     = 

OBJECT_NAME    = COSMOS 1844
OBJECT_ID      = 1987-041A
CENTER_NAME    = EARTH
REF_FRAME      = TEME
TIME_SYSTEM    = UTC
MEAN_ELEMENT_THEORY = SGP/SGP4

EPOCH          = 2026-01-26T11:11:33.820224
MEAN_MOTION    = 14.14534836
ECCENTRICITY   = .0028457
INCLINATION    = 70.8990
RA_OF_ASC_NODE = 123.2382
ARG_OF_PERICENTER = 85.6722
MEAN_ANOMALY   = 274.7650

EPHEMERIS_TYPE = 0
CLASSIFICATION_TYPE = U
NORAD_CAT_ID   = 17973
ELEMENT_SET_NO = 999
REV_AT_EPOCH   = 99761
BSTAR          = -.37872E-4
MEAN_MOTION_DOT = -.121E-5
MEAN_MOTION_DDOT = 0

CCSDS_OMM_VERS = 2.0
CREATION_DATE  = 
ORIGINATOR     = 

OBJECT_NAME    = SL-14 R/B
OBJECT_ID      = 1987-055B
CENTER_NAME    = EARTH
REF_FRAME      = TEME
TIME_SYSTEM    = UTC
MEAN_ELEMENT_THEORY = SGP/SGP4

EPOCH          = 2026-01-26T12:20:16.253664
MEAN_MOTION    = 14.85575119
ECCENTRICITY   = .0021425
INCLINATION    = 82.4978
RA_OF_ASC_NODE = 28.7800
ARG_OF_PERICENTER = 149.2480
MEAN_ANOMALY   = 210.9996

EPHEMERIS_TYPE = 0
CLASSIFICATION_TYPE = U
NORAD_CAT_ID   = 18153
ELEMENT_SET_NO = 999
REV_AT_EPOCH   = 6367
BSTAR          = .86053E-4
MEAN_MOTION_DOT = .771E-5
MEAN_MOTION_DDOT = 0

CCSDS_OMM_VERS = 2.0
CREATION_DATE  = 
ORIGINATOR     = 

OBJECT_NAME    = COSMOS 1867
OBJECT_ID      = 1987-060A
CENTER_NAME    = EARTH
REF_FRAME      = TEME
TIME_SYSTEM    = UTC
MEAN_ELEMENT_THEORY = SGP/SGP4

EPOCH          = 2026-01-26T10:54:17.759808
MEAN_MOTION    = 14.31495528
ECCENTRICITY   = .0013975
INCLINATION    = 65.0102
RA_OF_ASC_NODE = 64.9835
ARG_OF_PERICENTER = 275.4101
MEAN_ANOMALY   = 84.5389

EPHEMERIS_TYPE = 0
CLASSIFICATION_TYPE = U
NORAD_CAT_ID   = 18187
ELEMENT_SET_NO = 999
REV_AT_EPOCH   = 1389
BSTAR          = .47601E-4
MEAN_MOTION_DOT = .27E-6
MEAN_MOTION_DDOT = 0

CCSDS_OMM_VERS = 2.0
CREATION_DATE  = 
ORIGINATOR     = 

OBJECT_NAME    = SL-14 R/B
OBJECT_ID      = 1988-001B
CENTER_NAME    = EARTH
REF_FRAME      = TEME
TIME_SYSTEM    = UTC
MEAN_ELEMENT_THEORY = SGP/SGP4

EPOCH          = 2026-01-26T12:09:26.012448
MEAN_MOTION    = 14.85476886
ECCENTRICITY   = .0018653
INCLINATION    = 82.5103
RA_OF_ASC_NODE = 235.0401
ARG_OF_PERICENTER = 22.4081
MEAN_ANOMALY   = 337.7946

EPHEMERIS_TYPE = 0
CLASSIFICATION_TYPE = U
NORAD_CAT_ID   = 18749
ELEMENT_SET_NO = 999
REV_AT_EPOCH   = 3576
BSTAR          = .7778E-4
MEAN_MOTION_DOT = .697E-5
MEAN_MOTION_DDOT = 0

