SL-14 R/B               
1 16792U 86046B   26026.30579777  .00000795  00000+0  88826-4 0  9996
2 16792  82.4833 120.2288 0023356  11.9099 348.2664 14.85545455120110
SL-14 R/B               
1 16882U 86055B   26026.50601036  .00000994  00000+0  11175-3 0  9995
2 16882  82.5221 166.3078 0020337 110.3370 317.3678 14.85592116113101
AJISAI (EGS)            
1 16908U 86061A   26026.46576266 -.00000073  00000+0  16947-3 0  9993
2 16908  50.0061 223.1872 0011285 178.4940 213.7353 12.44515285462747
COSMOS 1812             
1 17295U 87003A   26026.03269622  .00230474  00000+0  82301-3 0  9994
2 17295  82.4797 243.6622 0000972  25.9520 334.1800 15.88282619137650
SL-14 R/B               
1 17567U 87024B   26026.35463437  .00000861  00000+0  95319-4 0  9993
2 17567  82.5303 132.5464 0019269  44.5251 315.7509 14.86086576 81844
COSMOS 1833             
1 17589U 87027A   26026.45734447  .00000215  00000+0  14084-3 0  9995
2 17589  70.9196  54.7795 0024581 270.5656  89.2648 14.13051568  4355
SL-16 R/B               
1 17590U 87027B   26026.34154321  .00000161  00000+0  10352-3 0  9996
2 17590  71.0037   5.7300 0005883 210.0151 150.0636 14.17160175  9341
SL-14 R/B               
1 17912U 87038B   26026.32777813  .00000960  00000+0  10865-3 0  9997
2 17912  82.5037 336.7021 0018026 307.9573  52.0013 14.85320478 72945
COSMOS 1844             
1 17973U 87041A   26026.46636366 -.00000121  00000+0 -37872-4 0  9999
2 17973  70.8990 123.2382 0028457  85.6722 274.7650 14.14534836997611
SL-14 R/B               
1 18153U 87055B   26026.51407701  .00000771  00000+0  86053-4 0  9994
2 18153  82.4978  28.7800 0021425 149.2480 210.9996 14.85575119 63679
COSMOS 1867             
1 18187U 87060A   26026.45437222  .00000027  00000+0  47601-4 0  9991
2 18187  65.0102  64.9835 0013975 275.4101  84.5389 14.31495528 13891
SL-14 R/B               
1 18749U 88001B   26026.50655107  .00000697  00000+0  77780-4 0  9995
2 18749  82.5103 235.0401 0018653  22.4081 337.7946 14.85476886 35762
